TJS-14                  
1 62804U 25017A   26183.58624758  .00000126  00000+0  00000+0 0  9997
2 62804   0.7494 296.6611 0001316 287.8626 285.5230  1.00271522  5423
SPAINSAT NG I           
1 62852U 25021A   26183.58815426  .00000162  00000+0  00000+0 0  9999
2 62852   0.0196  14.4448 0000181  80.2809  66.6169  1.00271181  4147
QZS-6 (MICHIBIKI-6)     
1 62876U 25023A   26183.64329088 -.00000223  00000+0  00000+0 0  9997
2 62876   0.0443 284.3870 0002074 191.4243 126.9873  1.00271676  5103
ZHONGXING-10R           
1 63075U 25036A   26183.59252245 -.00000341  00000+0  00000+0 0  9998
2 63075   0.0567 238.0217 0004129 268.3281  98.1260  1.00271225  5113
TJS-15                  
1 63157U 25045A   26183.75929199 -.00000254  00000+0  00000+0 0  9999
2 63157   0.3058  85.5733 0003804 301.9252 260.9777  1.00274962  4911
TIANLIAN 2-04           
1 63361U 25062A   26183.67332573 -.00000122  00000+0  00000+0 0  9994
2 63361   4.3368 274.2118 0031118   9.8463 319.1091  1.00271202  4759
TJS-16                  
1 63397U 25064A   26183.69857794 -.00000095  00000+0  00000+0 0  9993
2 63397   1.1359  81.3849 0002939 299.1841 312.2806  1.00272015  4542
TJS-17                  
1 63524U 25073A   26183.77560743 -.00000059  00000+0  00000+0 0  9999
2 63524   1.1020  82.5843 0001564 315.8143 326.1705  1.00271016  4441
TIANLIAN 2-05           
1 63662U 25084A   26183.30147235  .00000138  00000+0  00000+0 0  9997
2 63662   4.4149 279.6564 0003360 160.7561 328.9206  1.00276640  4532
TJS-19                  
1 63924U 25097A   26183.75314255 -.00000263  00000+0  00000+0 0  9999
2 63924   3.2611 317.6772 0003438 238.0724 137.4555  1.00271699  4308
CHINASAT 3B             
1 64062U 25106A   26182.90284270 -.00000035  00000+0  00000+0 0  9990
2 64062   0.0214 118.6033 0003716  12.5992 281.0656  1.00270454  4201
SXM-10                  
1 64290U 25122A   26183.47044876 -.00000007  00000+0  00000+0 0  9999
2 64290   0.0191  36.7541 0001828 338.1016 318.8458  1.00274027  3835
COSMOS 2589             
1 64467U 25131A   26183.75492887 -.00000280  00000+0  00000+0 0  9998
2 64467   0.0398 102.1054 0000936 108.8979  79.5624  1.00272301  3712
CHINASAT 9C             
1 64470U 25132A   26183.60089887 -.00000236  00000+0  00000+0 0  9990
2 64470   0.0503 243.0838 0003491 222.1958 123.8739  1.00270325  4305
MTG-S1                  
1 64723U 25143A   26183.29731233  .00000003  00000+0  00000+0 0  9998
2 64723   0.5917 342.1375 0002909 264.7264 140.0482  1.00271232  3574
DROR 1                  
1 64784U 25148A   26183.58181307 -.00000024  00000+0  00000+0 0  9997
2 64784   0.0145   8.3252 0002467  33.4458  84.2869  1.00272365  3452
SHIYAN-29               
1 65486U 25196A   26183.64285060 -.00000268  00000+0  00000+0 0  9998
2 65486  28.8374  18.3404 0013287 174.9626  53.8913  1.00281424  3036
NUSANTARA LIMA (NUSANT*)
1 65588U 25205A   26183.59550389 -.00000347  00000+0  00000+0 0  9993
2 65588   0.0094  83.7793 0000733  70.0921  93.9965  1.00269338  2876
TJS-20                  
1 66142U 25238A   26183.45238300  .00000039  00000+0  00000+0 0  9994
2 66142   5.4367 299.4858 0004729 170.2069  36.0380  1.00271978  2487
CMS-03 (GSAT-7R)        
1 66311U 25249B   26183.59725885 -.00000066  00000+0  00000+0 0  9999
2 66311   0.0574 258.4674 0002038 175.0793 136.0759  1.00271946  2504
VIASAT-3 F2             
1 66454U 25261A   26183.28179892 -.00000223  00000+0  00000+0 0  9993
2 66454   0.0138 141.9959 0000723  29.2556 131.5440  1.00271412  2949
SHIJIAN-28 (SJ-28)      
1 66549U 25277A   26183.60575222 -.00000347  00000+0  00000+0 0  9995
2 66549   4.5004 271.8849 0000642  30.1805 313.4842  1.00269803  2302
TJS-22                  
1 66990U 25290A   26182.83715211  .00000004  00000+0  00000+0 0  9997
2 66990   1.4933 286.7670 0002293 321.2501  39.7233  1.00273446  2172
TJS-23                  
1 67226U 25306A   26182.56272797  .00000031  00000+0  00000+0 0  9995
2 67226   5.5554 297.4129 0004619 185.0367 175.2055  1.00272170  2033
FENGYUN 4C              
1 67246U 25312A   26181.68417231 -.00000312  00000+0  00000+0 0  9993
2 67246   0.0471 163.2991 0000706   4.6384 130.1121  1.00270776  1918
SHIJIAN-29A (SJ-29A)    
1 67302U 25315A   26183.78607454 -.00000058  00000+0  00000+0 0  9997
2 67302   3.4352  94.7457 0003546  26.2449 155.9510  1.00271215  1778
SHIJIAN-29B (SJ-29B)    
1 67403U 25315C   26183.78607468 -.00000059  00000+0  00000+0 0  9995
2 67403   3.4341  94.7401 0004765  42.6627 139.5767  1.00273573  1840
ELEKTRO-L 5             
1 67756U 26028A   26183.01079747 -.00000087  00000+0  00000+0 0  9998
2 67756   0.2263 318.2411 0001828 181.2800 220.4887  1.00272068  1407
JAM-E JAM 1             
1 67757U 26028B   26183.23287528  .00000166  00000+0  00000+0 0  9998
2 67757   0.2307 307.1277 0001209 341.4969 109.5419  1.00268389  1277
ECHOSTAR 25             
1 68126U 26045A   26183.56083964  .00000000  00000+0  00000+0 0  9999
2 68126   0.0209  32.1006 0001724  76.6632 263.7530  1.00268975  1142
TJS-24                  
1 69235U 26116A   26183.75826725 -.00000221  00000+0  00000+0 0  9997
2 69235   0.0486 100.1523 0000282 343.1615 200.7297  1.00274390   386
