OBJECT_NAME,OBJECT_ID,EPOCH,MEAN_MOTION,ECCENTRICITY,INCLINATION,RA_OF_ASC_NODE,ARG_OF_PERICENTER,MEAN_ANOMALY,EPHEMERIS_TYPE,CLASSIFICATION_TYPE,NORAD_CAT_ID,ELEMENT_SET_NO,REV_AT_EPOCH,BSTAR,MEAN_MOTION_DOT,MEAN_MOTION_DDOT
TJS-14,2025-017A,2026-07-02T14:04:11.790912,1.00271522,.00013168,0.7494,296.6611,287.8626,285.5230,0,U,62804,999,542,0,.126E-5,0
SPAINSAT NG I,2025-021A,2026-07-02T14:06:56.528064,1.00271181,.00001812,0.0196,14.4448,80.2809,66.6169,0,U,62852,999,414,0,.162E-5,0
QZS-6 (MICHIBIKI-6),2025-023A,2026-07-02T15:26:20.332032,1.00271676,.00020745,0.0443,284.3870,191.4243,126.9873,0,U,62876,999,510,0,-.223E-5,0
ZHONGXING-10R,2025-036A,2026-07-02T14:13:13.939680,1.00271225,.00041294,0.0567,238.0217,268.3281,98.1260,0,U,63075,999,511,0,-.341E-5,0
TJS-15,2025-045A,2026-07-02T18:13:22.827936,1.00274962,.0003804,0.3058,85.5733,301.9252,260.9777,0,U,63157,999,491,0,-.254E-5,0
TIANLIAN 2-04,2025-062A,2026-07-02T16:09:35.343072,1.00271202,.00311188,4.3368,274.2118,9.8463,319.1091,0,U,63361,999,475,0,-.122E-5,0
TJS-16,2025-064A,2026-07-02T16:45:57.134016,1.00272015,.0002939,1.1359,81.3849,299.1841,312.2806,0,U,63397,999,454,0,-.95E-6,0
TJS-17,2025-073A,2026-07-02T18:36:52.481952,1.00271016,.0001564,1.1020,82.5843,315.8143,326.1705,0,U,63524,999,444,0,-.59E-6,0
TIANLIAN 2-05,2025-084A,2026-07-02T07:14:07.211040,1.00276640,.00033604,4.4149,279.6564,160.7561,328.9206,0,U,63662,999,453,0,.138E-5,0
TJS-19,2025-097A,2026-07-02T18:04:31.516320,1.00271699,.0003438,3.2611,317.6772,238.0724,137.4555,0,U,63924,999,430,0,-.263E-5,0
CHINASAT 3B,2025-106A,2026-07-01T21:40:05.609280,1.00270454,.00037168,0.0214,118.6033,12.5992,281.0656,0,U,64062,999,420,0,-.35E-6,0
SXM-10,2025-122A,2026-07-02T11:17:26.772864,1.00274027,.00018281,0.0191,36.7541,338.1016,318.8458,0,U,64290,999,383,0,-.7E-7,0
COSMOS 2589,2025-131A,2026-07-02T18:07:05.854368,1.00272301,.0000936,0.0398,102.1054,108.8979,79.5624,0,U,64467,999,371,0,-.28E-5,0
CHINASAT 9C,2025-132A,2026-07-02T14:25:17.662368,1.00270325,.00034912,0.0503,243.0838,222.1958,123.8739,0,U,64470,999,430,0,-.236E-5,0
MTG-S1,2025-143A,2026-07-02T07:08:07.785312,1.00271232,.00029092,0.5917,342.1375,264.7264,140.0482,0,U,64723,999,357,0,.3E-7,0
DROR 1,2025-148A,2026-07-02T13:57:48.649248,1.00272365,.00024678,0.0145,8.3252,33.4458,84.2869,0,U,64784,999,345,0,-.24E-6,0
SHIYAN-29,2025-196A,2026-07-02T15:25:42.291840,1.00281424,.00132878,28.8374,18.3404,174.9626,53.8913,0,U,65486,999,303,0,-.268E-5,0
NUSANTARA LIMA (NUSANTARA 5),2025-205A,2026-07-02T14:17:31.536096,1.00269338,.00007338,0.0094,83.7793,70.0921,93.9965,0,U,65588,999,287,0,-.347E-5,0
TJS-20,2025-238A,2026-07-02T10:51:25.891200,1.00271978,.00047297,5.4367,299.4858,170.2069,36.0380,0,U,66142,999,248,0,.39E-6,0
CMS-03 (GSAT-7R),2025-249B,2026-07-02T14:20:03.164640,1.00271946,.00020385,0.0574,258.4674,175.0793,136.0759,0,U,66311,999,250,0,-.66E-6,0
VIASAT-3 F2,2025-261A,2026-07-02T06:45:47.426688,1.00271412,.00007231,0.0138,141.9959,29.2556,131.5440,0,U,66454,999,294,0,-.223E-5,0
SHIJIAN-28 (SJ-28),2025-277A,2026-07-02T14:32:16.991808,1.00269803,.0000642,4.5004,271.8849,30.1805,313.4842,0,U,66549,999,230,0,-.347E-5,0
TJS-22,2025-290A,2026-07-01T20:05:29.942304,1.00273446,.00022936,1.4933,286.7670,321.2501,39.7233,0,U,66990,999,217,0,.4E-7,0
TJS-23,2025-306A,2026-07-01T13:30:19.696608,1.00272170,.00046197,5.5554,297.4129,185.0367,175.2055,0,U,67226,999,203,0,.31E-6,0
FENGYUN 4C,2025-312A,2026-06-30T16:25:12.487584,1.00270776,.00007061,0.0471,163.2991,4.6384,130.1121,0,U,67246,999,191,0,-.312E-5,0
SHIJIAN-29A (SJ-29A),2025-315A,2026-07-02T18:51:56.840256,1.00271215,.0003546,3.4352,94.7457,26.2449,155.9510,0,U,67302,999,177,0,-.58E-6,0
SHIJIAN-29B (SJ-29B),2025-315C,2026-07-02T18:51:56.852352,1.00273573,.0004765,3.4341,94.7401,42.6627,139.5767,0,U,67403,999,184,0,-.59E-6,0
ELEKTRO-L 5,2026-028A,2026-07-02T00:15:32.901408,1.00272068,.00018282,0.2263,318.2411,181.2800,220.4887,0,U,67756,999,140,0,-.87E-6,0
JAM-E JAM 1,2026-028B,2026-07-02T05:35:20.424192,1.00268389,.00012098,0.2307,307.1277,341.4969,109.5419,0,U,67757,999,127,0,.166E-5,0
ECHOSTAR 25,2026-045A,2026-07-02T13:27:36.544896,1.00268975,.00017249,0.0209,32.1006,76.6632,263.7530,0,U,68126,999,114,0,0,0
TJS-24,2026-116A,2026-07-02T18:11:54.290400,1.00274390,.0000282,0.0486,100.1523,343.1615,200.7297,0,U,69235,999,38,0,-.221E-5,0
